NORAD_CAT_ID,OBJECT_NAME,OBJECT_TYPE,EPOCH,MEAN_MOTION,ECCENTRICITY,INCLINATION,RA_OF_ASC_NODE,ARG_OF_PERICENTER,MEAN_ANOMALY,BSTAR,MEAN_MOTION_DOT,MEAN_MOTION_DDOT,TLE_LINE0,TLE_LINE1,TLE_LINE2,SEMIMAJOR_AXIS,PERIOD,APOGEE,PERIGEE,DECAYED
53870.0,STARLINK-4732,PAYLOAD,2023-02-26 02:12:20,15.08850527,0.000126,53.2181,196.2469,100.3413,259.7721,-9.6772e-05,-1.828e-05,0.0,0 STARLINK-4732,1 53870U 22114BE  23057.09189876 -.00001828  00000-0 -96772-4 0  9994,2 53870  53.2181 196.2469 0001260 100.3413 259.7721 15.08850527 25644,6917.848,95.437,540.585,538.842,0.0
53870.0,STARLINK-4732,PAYLOAD,2023-02-26 11:44:38,15.08847363,0.000135,53.2181,194.4617,103.4116,256.7026,0.000172,2.451e-05,0.0,0 STARLINK-4732,1 53870U 22114BE  23057.48933384  .00002451  00000-0  17200-3 0  9997,2 53870  53.2181 194.4617 0001350 103.4116 256.7026 15.08847363 26249,6917.858,95.437,540.657,538.789,0.0
53870.0,STARLINK-4732,PAYLOAD,2023-02-26 19:41:33,15.08862415,0.0001206,53.2179,192.9752,101.4386,258.6742,0.00029163,4.359e-05,0.0,0 STARLINK-4732,1 53870U 22114BE  23057.82052101  .00004359  00000-0  29163-3 0  9994,2 53870  53.2179 192.9752 0001206 101.4386 258.6742 15.08862415 25752,6917.812,95.436,540.511,538.843,0.0
53870.0,STARLINK-4732,PAYLOAD,2023-02-27 02:03:07,15.08832686,0.0001384,53.2184,191.7869,87.8458,272.2693,3.4202e-05,2.56e-06,0.0,0 STARLINK-4732,1 53870U 22114BE  23058.08550687  .00000256  00000-0  34202-4 0  9998,2 53870  53.2184 191.7869 0001384  87.8458 272.2693 15.08832686 25796,6917.903,95.438,540.725,538.81,0.0
53870.0,STARLINK-4732,PAYLOAD,2023-02-27 17:56:56,15.0887668,0.0001162,53.2169,188.8114,92.7508,267.3617,0.00056016,8.647e-05,0.0,0 STARLINK-4732,1 53870U 22114BE  23058.74787914  .00008647  00000-0  56016-3 0  9994,2 53870  53.2169 188.8114 0001162  92.7508 267.3617 15.08876680 25898,6917.768,95.435,540.437,538.829,0.0
53870.0,STARLINK-4732,PAYLOAD,2023-02-28 01:53:53,15.08846596,0.0001388,53.2167,187.3251,86.3726,273.7425,4.2497e-05,3.89e-06,0.0,0 STARLINK-4732,1 53870U 22114BE  23059.07909180  .00000389  00000-0  42497-4 0  9996,2 53870  53.2167 187.3251 0001388  86.3726 273.7425 15.08846596 25940,6917.86,95.437,540.685,538.765,0.0
53870.0,STARLINK-4732,PAYLOAD,2023-02-28 13:01:35,15.08839685,0.0001654,53.2168,185.2446,84.4879,275.6302,-8.3267e-05,-1.613e-05,0.0,0 STARLINK-4732,1 53870U 22114BE  23059.54277509 -.00001613  00000-0 -83267-4 0  9994,2 53870  53.2168 185.2446 0001654  84.4879 275.6302 15.08839685 26552,6917.881,95.438,540.891,538.602,0.0
53870.0,STARLINK-4732,PAYLOAD,2023-02-28 19:23:07,15.08849113,9.14e-05,53.2167,184.0513,88.8057,271.304,0.00010875,1.444e-05,0.0,0 STARLINK-4732,1 53870U 22114BE  23059.80772599  .00001444  00000-0  10875-3 0  9996,2 53870  53.2167 184.0513 0000914  88.8057 271.3040 15.08849113 26590,6917.853,95.437,540.35,539.085,0.0
53870.0,STARLINK-4732,PAYLOAD,2023-03-01 01:44:41,15.08819273,0.0001025,53.217,182.8639,105.7928,254.3177,-0.00040472,-6.719e-05,0.0,0 STARLINK-4732,1 53870U 22114BE  23060.07270146 -.00006719  00000-0 -40472-3 0  9996,2 53870  53.2170 182.8639 0001025 105.7928 254.3177 15.08819273 26090,6917.944,95.439,540.518,539.1,0.0
53870.0,STARLINK-4732,PAYLOAD,2023-03-01 19:13:57,15.0881999,0.0001623,53.2164,179.593,122.1518,237.9632,0.00086347,0.00013473,0.0,0 STARLINK-4732,1 53870U 22114BE  23060.80135520  .00013473  00000-0  86347-3 0  9997,2 53870  53.2164 179.5930 0001623 122.1518 237.9632 15.08819990 26743,6917.942,95.439,540.929,538.684,0.0
53870.0,STARLINK-4732,PAYLOAD,2023-03-02 17:29:20,15.08876439,0.0001401,53.2171,175.4309,105.7788,254.3359,0.0017652,0.00027945,0.0,0 STARLINK-4732,1 53870U 22114BE  23061.72870967  .00027945  00000-0  17652-2 0  9991,2 53870  53.2171 175.4309 0001401 105.7788 254.3359 15.08876439 26881,6917.769,95.435,540.603,538.665,0.0
53870.0,STARLINK-4732,PAYLOAD,2023-03-03 07:47:48,15.0886114,0.0001011,53.2171,172.7544,111.5588,248.5512,0.00084667,0.0001322,0.0,0 STARLINK-4732,1 53870U 22114BE  23062.32486615  .00013220  00000-0  84667-3 0  9993,2 53870  53.2171 172.7544 0001011 111.5588 248.5512 15.08861140 26432,6917.816,95.436,540.38,538.981,0.0
53870.0,STARLINK-4732,PAYLOAD,2023-03-03 10:58:34,15.08876704,0.0001213,53.2172,172.1599,110.7435,249.3688,0.0020871,0.00033118,0.0,0 STARLINK-4732,1 53870U 22114BE  23062.45734418  .00033118  00000-0  20871-2 0  9998,2 53870  53.2172 172.1599 0001213 110.7435 249.3688 15.08876704 26450,6917.768,95.435,540.472,538.794,0.0
53870.0,STARLINK-4732,PAYLOAD,2023-03-03 18:55:29,15.08910598,0.0001292,53.2171,170.6724,113.0733,247.0396,0.0031135,0.00049709,0.0,0 STARLINK-4732,1 53870U 22114BE  23062.78853163  .00049709  00000-0  31135-2 0  9991,2 53870  53.2171 170.6724 0001292 113.0733 247.0396 15.08910598 26503,6917.665,95.433,540.423,538.636,0.0
53870.0,STARLINK-4732,PAYLOAD,2023-03-04 07:38:35,15.08860351,0.0003216,53.217,168.2935,77.228,282.9071,0.0016628,0.00026291,0.0,0 STARLINK-4732,1 53870U 22114BE  23063.31846195  .00026291  00000-0  16628-2 0  9999,2 53870  53.2170 168.2935 0003216  77.2280 282.9071 15.08860351 26582,6917.818,95.436,541.908,537.458,0.0
53870.0,STARLINK-4732,PAYLOAD,2023-03-04 10:49:21,15.08842708,0.0001076,53.217,167.6991,94.0649,266.0466,0.0013612,0.00021443,0.0,0 STARLINK-4732,1 53870U 22114BE  23063.45094136  .00021443  00000-0  13612-2 0  9998,2 53870  53.2170 167.6991 0001076  94.0649 266.0466 15.08842708 27145,6917.872,95.437,540.481,538.993,0.0
53870.0,STARLINK-4732,PAYLOAD,2023-03-04 12:24:44,15.08842771,0.0001231,53.2172,167.4018,100.0745,260.0386,0.0016721,0.00026426,0.0,0 STARLINK-4732,1 53870U 22114BE  23063.51718251  .00026426  00000-0  16721-2 0  9996,2 53870  53.2172 167.4018 0001231 100.0745 260.0386 15.08842771 26619,6917.872,95.437,540.589,538.885,0.0
53870.0,STARLINK-4732,PAYLOAD,2023-03-04 15:35:30,15.0885271,0.0001118,53.2171,166.8073,83.934,276.178,0.002783,0.00044297,0.0,0 STARLINK-4732,1 53870U 22114BE  23063.64966333  .00044297  00000-0  27830-2 0  9995,2 53870  53.2171 166.8073 0001118  83.9340 276.1780 15.08852710 27178,6917.842,95.437,540.48,538.933,0.0
53870.0,STARLINK-4732,PAYLOAD,2023-03-04 23:32:26,15.08844511,0.0001177,53.2173,165.3206,94.1598,265.9529,0.0016867,0.00026661,0.0,0 STARLINK-4732,1 53870U 22114BE  23063.98086713  .00026661  00000-0  16867-2 0  9990,2 53870  53.2173 165.3206 0001177  94.1598 265.9529 15.08844511 26688,6917.867,95.437,540.546,538.917,0.0
53870.0,STARLINK-4732,PAYLOAD,2023-03-06 05:44:46,15.0887163,0.0003015,53.2152,159.6731,90.0053,270.1285,0.0011779,0.00018525,0.0,0 STARLINK-4732,1 53870U 22114BE  23065.23942717  .00018525  00000-0  11779-2 0  9992,2 53870  53.2152 159.6731 0003015  90.0053 270.1285 15.08871630 26878,6917.784,95.436,541.734,537.563,0.0
53870.0,STARLINK-4732,PAYLOAD,2023-03-06 12:06:18,15.08857947,0.0001268,53.217,158.4829,113.0733,247.0393,0.0021971,0.00034869,0.0,0 STARLINK-4732,1 53870U 22114BE  23065.50438260  .00034869  00000-0  21971-2 0  9999,2 53870  53.2170 158.4829 0001268 113.0733 247.0393 15.08857947 26915,6917.826,95.436,540.568,538.813,0.0
53870.0,STARLINK-4732,PAYLOAD,2023-03-06 15:17:04,15.08849465,0.0001365,53.2172,157.8892,109.409,250.705,0.00085208,0.00013302,0.0,0 STARLINK-4732,1 53870U 22114BE  23065.63686282  .00013302  00000-0  85208-3 0  9995,2 53870  53.2172 157.8892 0001365 109.4090 250.7050 15.08849465 26932,6917.851,95.437,540.661,538.772,0.0
53870.0,STARLINK-4732,PAYLOAD,2023-03-07 15:07:52,15.08863443,0.000117,53.2174,153.4297,109.6243,250.4876,0.0010996,0.00017267,0.0,0 STARLINK-4732,1 53870U 22114BE  23066.63046797  .00017267  00000-0  10996-2 0  9992,2 53870  53.2174 153.4297 0001170 109.6243 250.4876 15.08863443 27083,6917.809,95.436,540.483,538.864,0.0
53870.0,STARLINK-4732,PAYLOAD,2023-03-07 23:04:48,15.08832182,0.0001632,53.2173,151.9427,76.8164,283.301,0.0001795,2.569e-05,0.0,0 STARLINK-4732,1 53870U 22114BE  23066.96167313  .00002569  00000-0  17950-3 0  9993,2 53870  53.2173 151.9427 0001632  76.8164 283.3010 15.08832182 27137,6917.904,95.438,540.898,538.64,0.0
53870.0,STARLINK-4732,PAYLOAD,2023-03-08 10:12:30,15.08835701,0.000162,53.2173,149.8612,71.7193,288.3975,0.00046943,7.19e-05,0.0,0 STARLINK-4732,1 53870U 22114BE  23067.42535684  .00007190  00000-0  46943-3 0  9994,2 53870  53.2173 149.8612 0001620  71.7193 288.3975 15.08835701 27744,6917.894,95.438,540.879,538.638,0.0
53870.0,STARLINK-4732,PAYLOAD,2023-03-08 22:55:35,15.08855706,0.0001831,53.2181,147.4804,75.3466,284.7729,0.0010693,0.00016778,0.0,0 STARLINK-4732,1 53870U 22114BE  23067.95527628  .00016778  00000-0  10693-2 0  9995,2 53870  53.2181 147.4804 0001831  75.3466 284.7729 15.08855706 27280,6917.832,95.437,540.964,538.431,0.0
53870.0,STARLINK-4732,PAYLOAD,2023-03-09 11:38:40,15.08863091,0.0001481,53.2186,145.0988,99.4904,260.6256,0.00084705,0.00013227,0.0,0 STARLINK-4732,1 53870U 22114BE  23068.48518876  .00013227  00000-0  84705-3 0  9991,2 53870  53.2186 145.0988 0001481  99.4904 260.6256 15.08863091 27360,6917.81,95.436,540.699,538.65,0.0
53870.0,STARLINK-4732,PAYLOAD,2023-03-10 05:07:54,15.08855761,0.0001548,53.2175,141.8304,104.0524,256.064,0.00038819,5.898e-05,0.0,0 STARLINK-4732,1 53870U 22114BE  23069.21382587  .00005898  00000-0  38819-3 0  9991,2 53870  53.2175 141.8304 0001548 104.0524 256.0640 15.08855761 27472,6917.832,95.437,540.768,538.626,0.0
53870.0,STARLINK-4732,PAYLOAD,2023-03-10 11:29:26,15.088659,0.0001114,53.2167,140.6403,110.0073,250.1039,0.00089651,0.00014019,0.0,0 STARLINK-4732,1 53870U 22114BE  23069.47878191  .00014019  00000-0  89651-3 0  9995,2 53870  53.2167 140.6403 0001114 110.0073 250.1039 15.08865900 28053,6917.801,95.436,540.437,538.896,0.0
53870.0,STARLINK-4732,PAYLOAD,2023-03-11 08:09:28,15.08834928,0.0001387,53.2176,136.7735,117.7908,242.3225,0.00073754,0.00011468,0.0,0 STARLINK-4732,1 53870U 22114BE  23070.33991360  .00011468  00000-0  73754-3 0  9998,2 53870  53.2176 136.7735 0001387 117.7908 242.3225 15.08834928 27640,6917.896,95.438,540.72,538.801,0.0
